[
  {
    "type": "mat",
    "name": "Bronson Alcott Academy",
    "phase": "Secondary",
    "isSpecialSchool": false,
    "locations": [
      {
        "id": "d596e02c-1d23-498a-930d-e2b5d5f4ad23",
        "name": "Boom Primary School",
        "address": {
          "address1": "123 Main Street",
          "town": "Some town",
          "postcode": "AB1 2CD"
        }
      },
      {
        "id": "d9b1d6af-20db-460a-921c-946688d06d58",
        "name": "Town Primary School",
        "address": {
          "address1": "321 Main Street",
          "town": "Some place",
          "postcode": "AB2 3CD"
        }
      }
    ],
    "address": {
      "line1": "Friendship Way",
      "town": "London",
      "county": "London",
      "postcode": "E15 2JQ"
    }
  },
  {
    "type": "mat",
    "name": "Tamsin Academy",
    "phase": "Secondary",
    "isSpecialSchool": false,
    "locations": [
      {
        "id": "066fdfb6-a6d5-4edd-9cc3-ccc45d12911a",
        "name": "Boom Primary School",
        "address": {
          "address1": "123 Main Street",
          "town": "Some town",
          "postcode": "AB1 2CD"
        }
      },
      {
        "id": "3466e5aa-3970-49c1-ad3e-5da0c5de8dfa",
        "name": "Town Primary School",
        "address": {
          "address1": "321 Main Street",
          "town": "Some place",
          "postcode": "AB2 3CD"
        }
      }
    ],
    "address": {
      "line1": "c/o Tile Kiln Lane",
      "town": "Palmers Green",
      "county": "London",
      "postcode": "N13 6BY"
    }
  },
  {
    "type": "school",
    "name": "Leadenham Church of England Primary School",
    "phase": "Primary",
    "isSpecialSchool": false,
    "locations": [
      {
        "id": "355cc4eb-e614-4c16-8bc6-310ccaf83549",
        "name": "Boom Primary School",
        "address": {
          "address1": "123 Main Street",
          "town": "Some town",
          "postcode": "AB1 2CD"
        }
      }
    ],
    "address": {
      "line1": "52 The Crescent",
      "line2": "Tavistock",
      "town": "Mill Hill",
      "county": "Barnet",
      "postcode": "NW7 4NA"
    }
  },
  {
    "type": "mat",
    "name": "Sommerset Secondary School",
    "phase": "Secondary",
    "isSpecialSchool": false,
    "locations": [
      {
        "id": "5a0327e1-b325-4b71-ba49-17be0b312206",
        "name": "Boom Primary School",
        "address": {
          "address1": "123 Main Street",
          "town": "Some town",
          "postcode": "AB1 2CD"
        }
      },
      {
        "id": "6de3e8fc-53bb-48b8-836e-60202979739e",
        "name": "Town Primary School",
        "address": {
          "address1": "321 Main Street",
          "town": "Some place",
          "postcode": "AB2 3CD"
        }
      }
    ],
    "address": {
      "line1": "tratford Road",
      "town": "Henley-in-Arden",
      "county": "Warwickshire",
      "postcode": "C95 6AD"
    }
  }
]